GLOBALSTAR M023 [+]     
1 25621U 99004A   23322.85639747 -.00000101  00000+0  17558-4 0  9991
2 25621  52.0131   8.2841 0009484 291.7057 240.6095 12.62448344142932
GLOBALSTAR M040 [-]     
1 25622U 99004B   23322.92622209 -.00000051  00000+0  29727-3 0  9999
2 25622  51.9942  11.3855 0000665 180.0701 352.7177 12.61959776142491
GLOBALSTAR M036 [-]     
1 25623U 99004C   23322.70915741  .00000006  00000+0  12968-2 0  9999
2 25623  51.9979 319.7284 0011334  30.0335 140.6907 11.86560500110540
GLOBALSTAR M038 [-]     
1 25624U 99004D   23323.14864031 -.00000066  00000+0  23917-3 0  9998
2 25624  51.9976 290.4368 0001641 310.5720 132.9937 12.32487996131303
GLOBALSTAR M022 [-]     
1 25649U 99012A   23323.06372356 -.00000105  00000+0 -21667-3 0  9994
2 25649  52.0053  57.0276 0003344 113.2514  88.4797 12.02472115107142
GLOBALSTAR M041 [-]     
1 25650U 99012B   23322.87525760 -.00000032  00000+0  69032-3 0  9999
2 25650  52.0024 281.4242 0001588 273.6235  86.4420 11.96648164109286
GLOBALSTAR M046 [-]     
1 25651U 99012C   23323.19519128 -.00000192  00000+0 -11406-2 0  9996
2 25651  52.0081  27.8293 0002478 174.1660 202.2012 12.09379002114327
GLOBALSTAR M037 [+]     
1 25652U 99012D   23322.77531676 -.00000077  00000+0  14838-3 0  9996
2 25652  51.9978 139.3714 0001915  24.8594 348.0580 12.62389139138472
